STARLINK-30263          
1 57642U 23122L   26068.44532009  .00000526  00000+0  29304-4 0  9997
2 57642  43.0011  93.5321 0001286 265.2703  94.8002 15.26738900142179
FLOCK 4G-30             
1 62679U 25009BY  26068.70871344  .00013147  00000+0  49475-3 0  9999
2 62679  97.3969 150.6012 0003795 342.4152  17.6955 15.27244548121341
